[
    {
        "id": 1,
        "color": [],
        "lines": {
            "name": "TERRA",
            "text": "TERRA,1 25994U 99068A   22192.16952012  .00000246  00000+0  64342-4 0  9997,2 25994  98.1361 263.5453 0001353 100.4260 344.0443 14.57155209200072",
            "line1": "1 25994U 99068A   22192.16952012  .00000246  00000+0  64342-4 0  9997",
            "line2": "2 25994  98.1361 263.5453 0001353 100.4260 344.0443 14.57155209200072"
        },
        "area": {
            "width": "5",
            "height": "5"
        }
    },
    {
        "id": 2,
        "color": [],
        "lines": {
            "name": "AQUA",
            "text": "AQUA,1 27424U 02022A   22192.18970760  .00000410  00000+0  10074-3 0  9998,2 27424  98.2482 133.8563 0001636 100.9056   5.9626 14.57322707 73680",
            "line1": "1 27424U 02022A   22192.18970760  .00000410  00000+0  10074-3 0  9998",
            "line2": "2 27424  98.2482 133.8563 0001636 100.9056   5.9626 14.57322707 73680"
        },
        "area": {
            "width": "6",
            "height": "8"
        }
    },
    {
        "id": 3,
        "color": [],
        "lines": {
            "name": "SUOMI NPP",
            "text": "SUOMI NPP,1 37849U 11061A   22192.17473363  .00000029  00000+0  34691-4 0  9997,2 37849  98.7331 130.3987 0001109  88.4927  23.1698 14.19532577554551",
            "line1": "1 37849U 11061A   22192.17473363  .00000029  00000+0  34691-4 0  9997",
            "line2": "2 37849  98.7331 130.3987 0001109  88.4927  23.1698 14.19532577554551"
        },
        "area": {
            "width": "4",
            "height": "2"
        }
    },
    {
        "id": 4,
        "color": [],
        "lines": {
            "name": "FENGYUN 3A",
            "text": "FENGYUN 3A,1 32958U 08026A   22192.16440966  .00000041  00000+0  39928-4 0  9994,2 32958  98.5037 153.8287 0008014 321.4610  38.5994 14.18726612731697",
            "line1": "1 32958U 08026A   22192.16440966  .00000041  00000+0  39928-4 0  9994",
            "line2": "2 32958  98.5037 153.8287 0008014 321.4610  38.5994 14.18726612731697"
        },
        "area": {
            "width": "4",
            "height": "6"
        }
    },
    {
        "id": 5,
        "color": [],
        "lines": {
            "name": "FENGYUN 3B",
            "text": "FENGYUN 3B,1 37214U 10059A   22192.43267667  .00000013  00000+0  30844-4 0  9995,2 37214  99.0900 198.8307 0021182 288.9501 207.5976 14.14259357604343",
            "line1": "1 37214U 10059A   22192.43267667  .00000013  00000+0  30844-4 0  9995",
            "line2": "2 37214  99.0900 198.8307 0021182 288.9501 207.5976 14.14259357604343"
        },
        "area": {
            "width": "7",
            "height": "7"
        }
    },
    {
        "id": 6,
        "color": [],
        "lines": {
            "name": "FENGYUN 3C",
            "text": "FENGYUN 3C,1 39260U 13052A   22192.22565450  .00000045  00000+0  43632-4 0  9996,2 39260  98.4523 219.1355 0010553 200.6024 159.4727 14.15930526455282",
            "line1": "1 39260U 13052A   22192.22565450  .00000045  00000+0  43632-4 0  9996",
            "line2": "2 39260  98.4523 219.1355 0010553 200.6024 159.4727 14.15930526455282"
        },
        "area": {
            "width": "6",
            "height": "4"
        }
    },
    {
        "id": 7,
        "color": [],
        "lines": {
            "name": "EROS B",
            "text": "EROS B,1 29079U 06014A   22192.20210860  .00009146  00000+0  37385-3 0  9991,2 29079  97.3856 312.6022 0004209 197.5722 279.0349 15.24577064899990",
            "line1": "1 29079U 06014A   22192.20210860  .00009146  00000+0  37385-3 0  9991",
            "line2": "2 29079  97.3856 312.6022 0004209 197.5722 279.0349 15.24577064899990"
        },
        "area": {
            "width": "5",
            "height": "4"
        }
    },
    {
        "id": 8,
        "color": [],
        "lines": {
            "name": "KANOPUS-V 1",
            "text": "KANOPUS-V 1,1 38707U 12039A   22192.18817829  .00005471  00000+0  24092-3 0  9996,2 38707  97.4691 114.1146 0001877  80.0475  56.0229 15.22250043553009",
            "line1": "1 38707U 12039A   22192.18817829  .00005471  00000+0  24092-3 0  9996",
            "line2": "2 38707  97.4691 114.1146 0001877  80.0475  56.0229 15.22250043553009"
        },
        "area": {
            "width": "8",
            "height": "5"
        }
    },
    {
        "id": 9,
        "color": [],
        "lines": {
            "name": "ARMSAT1 URDANETA",
            "text": "ARMSAT1 URDANETA,1 52765U 22057AK  22219.83245527  .00001828  00000+0  10527-3 0  9999,2 52765  97.5258 333.9074 0012579 340.5203 178.2137 15.13625719 11206",
            "line1": "1 52765U 22057AK  22219.83245527  .00001828  00000+0  10527-3 0  9999",
            "line2": "2 52765  97.5258 333.9074 0012579 340.5203 178.2137 15.13625719 11206"
        },
        "area": {
            "width": "5",
            "height": "5"
        }
    }
]